#aV2021  6  2  0  0  0.00000000     288 DD+AD WGS84 FIT  NGA
## 2160 259200.00000000   300.00000000 59367 0.0000000000000
+   31     1  2  3  4  5  6  7  8  9 10 12 13 14 15 16 17 18
+         19 20 21 22 23 24 25 26 27 28 29 30 31 32  0  0  0
+          0  0  0  0  0  0  0  0  0  0  0  0  0  0  0  0  0
+          0  0  0  0  0  0  0  0  0  0  0  0  0  0  0  0  0
+          0  0  0  0  0  0  0  0  0  0  0  0  0  0  0  0  0
++         2  2  2  2  2  2  2  2  2  2  2  2  2  2  2  2  2
++         2  2  2  2  2  2  2  2  2  2  2  2  2  2  0  0  0
++         0  0  0  0  0  0  0  0  0  0  0  0  0  0  0  0  0
++         0  0  0  0  0  0  0  0  0  0  0  0  0  0  0  0  0
++         0  0  0  0  0  0  0  0  0  0  0  0  0  0  0  0  0
%c cc cc ccc ccc cccc cccc cccc cccc ccccc ccccc ccccc ccccc
%c cc cc ccc ccc cccc cccc cccc cccc ccccc ccccc ccccc ccccc
%f  0.0000000  0.000000000  0.00000000000  0.000000000000000
%f  0.0000000  0.000000000  0.00000000000  0.000000000000000
%i    0    0    0    0      0      0      0      0         0
%i    0    0    0    0      0      0      0      0         0
/*      NGA, ST. LOUIS,MO.                                  
/*   EPHEMERIS COMPUTED FROM 2 DAYS OF DATA                 
/*   EPOCHA v6 SMOOTHER                                     
/*   G2139 IERS2010 SATIGS SATAPC                           
*  2021  6  2 18 30  0.00000000
P  1  19395.896226  10002.243735  15116.950245    670.644853                    
V  1  10162.140115  16676.204856 -23326.105639     -0.116057                    
P  2 -12692.129844 -22452.217196   6866.898814   -609.270867                    
V  2   7026.338169   4382.387900  30249.121646     -0.030218                    
P  3  15934.753934   -106.933012  21142.640300   -181.018164                    
V  3 -10395.363309  24974.970550   8038.784286     -0.104749                    
P  4  26142.480093   1446.357402   4663.179060   -198.574330                    
V  4  -5696.598425   3131.974415  30964.460552     -0.013067                    
P  5  -9364.194643 -14730.954025 -20125.414501    -43.772388                    
V  5  10558.597755 -22994.744192  12190.478848     -0.011266                    
P  6  -2867.032724 -21465.160595  15395.599305     22.333730                    
V  6  12589.704437  14865.484957  23212.124172      0.042763                    
P  7  15172.600689  -4525.362192 -21033.835366    167.868527                    
V  7  15621.081117  22634.693054   5804.405785      0.101243                    
P  8  21870.172037   6850.979291 -13692.337675    -23.592648                    
V  8 -16889.766733   3902.850086 -24745.480080     -0.014069                    
P  9  24793.719335  -7390.904150  -6126.746385   -349.049775                    
V  9   8002.268723   1966.870947  30275.527127     -0.020600                    
P 10 -11562.267306  23699.120383  -1399.897215   -134.429361                    
V 10  -1757.087694  -2892.166714 -32056.830840     -0.076143                    
P 12 -15086.183202  -2683.058533  21425.274701    -49.563729                    
V 12  12646.873484 -24747.282679   5873.409080     -0.052019                    
P 13 -14337.430660 -13045.074710 -18350.862542    139.841430                    
V 13  22991.447196   -669.517265 -17480.440507      0.048199                    
P 14  12872.908019 -23156.157510  -1624.688827     76.281728                    
V 14   1724.341611   3161.638145 -31606.511985     -0.065109                    
P 15 -22683.564472  -5244.525131 -13459.595024   -145.114700                    
V 15  15477.282832  -6159.585847 -23995.438606      0.026218                    
P 16   3871.769730  18757.861439 -18443.903923   -335.020372                    
V 16 -12573.459151  19383.156058  17750.436834     -0.059905                    
P 17  14185.799629 -13092.188852  18669.703855    452.265411                    
V 17  22804.328582     81.010502 -17674.997835      0.059941                    
P 18 -12617.359388   8221.315308 -21890.277487    348.426245                    
V 18 -15773.860901 -22821.644661    454.445310     -0.014713                    
P 19   4940.419672 -14379.890729  21476.045650      8.193041                    
V 19  27911.792766    559.531343  -6085.653526      0.049906                    
P 20 -12279.780276 -11738.852524 -20473.216477    521.567284                    
V 20   7921.937231 -24790.268122   9180.899487     -0.003871                    
P 21  20798.228111  14647.061543   9170.806046    122.401714                    
V 21   5159.373053   9413.089880 -28510.314166      0.025487                    
P 22  12873.591466  10392.566166  20999.137854   -598.549496                    
V 22  -8919.465064  24744.232924  -6641.191357      0.097132                    
P 23 -16208.310620  17232.271810 -12042.577015    100.978367                    
V 23   3747.627715 -14982.395502 -26576.414435     -0.038132                    
P 24 -20835.066774 -13055.051582  10289.691860    112.562418                    
V 24  -6313.444595 -12114.724367 -27098.441320      0.196802                    
P 25 -17405.521898  10697.386832  16559.779650    148.680220                    
V 25   6908.602852 -20607.960644  20514.959004      0.069545                    
P 26  -1812.587381  24418.635855 -10000.710548     93.347187                    
V 26  -7669.177899  10670.579287  27873.289565      0.048702                    
P 27  12003.683966  12600.578397 -20348.785916   -140.600418                    
V 27 -25084.373201   3319.952705 -12495.732881     -0.063532                    
P 28   9539.373451 -24414.077688   5416.605256    561.188936                    
V 28   4877.821675  -4292.837663 -30924.779879     -0.062885                    
P 29 -25522.642900   4671.849218  -5849.898086   -357.569211                    
V 29  -7391.565352  -1741.103628  31076.056107     -0.063889                    
P 30   5690.531117 -16990.861944 -19470.580633   -434.043147                    
V 30  15476.915612  19716.680210 -12876.827980     -0.047879                    
P 31   4617.470197  22574.718199  12710.637791   -120.821952                    
V 31 -11589.715926 -12012.049837  25829.306708     -0.021776                    
P 32 -10975.919662  14811.308311  19172.112335     19.747943                    
V 32 -24186.535238   1220.673660 -15046.563107     -0.010940                    
EOF
